[{"OBJECT_NAME":"STARLINK-34027","OBJECT_ID":"2025-098L","EPOCH":"2026-03-09T22:26:25.938816","MEAN_MOTION":14.98334092,"ECCENTRICITY":0.00024299,"INCLINATION":70.0009,"RA_OF_ASC_NODE":273.6539,"ARG_OF_PERICENTER":265.762,"MEAN_ANOMALY":94.3262,"EPHEMERIS_TYPE":0,"CLASSIFICATION_TYPE":"U","NORAD_CAT_ID":63936,"ELEMENT_SET_NO":999,"REV_AT_EPOCH":4659,"BSTAR":0.00014169291,"MEAN_MOTION_DOT":1.598e-5,"MEAN_MOTION_DDOT":0},{"OBJECT_NAME":"UNKNOWN","OBJECT_ID":"","EPOCH":"2026-03-08T12:59:39.172704","MEAN_MOTION":15.0131728,"ECCENTRICITY":0.00204305,"INCLINATION":86.3534,"RA_OF_ASC_NODE":358.469,"ARG_OF_PERICENTER":121.5673,"MEAN_ANOMALY":238.7558,"EPHEMERIS_TYPE":0,"CLASSIFICATION_TYPE":"U","NORAD_CAT_ID":270086,"ELEMENT_SET_NO":999,"REV_AT_EPOCH":9441,"BSTAR":0.0053525659,"MEAN_MOTION_DOT":0.00069778,"MEAN_MOTION_DDOT":0}]
